{
    "links": {
        "self": "http://www.neowsapp.com/rest/v1/neo/3873316?api_key=iIulBulltgU6a56xZRHN4H3l9WmuAYTsLGpBGhQ2"
    },
    "id": "3873316",
    "neo_reference_id": "3873316",
    "name": "(2019 TQ)",
    "designation": "2019 TQ",
    "nasa_jpl_url": "http://ssd.jpl.nasa.gov/sbdb.cgi?sstr=3873316",
    "absolute_magnitude_h": 24.7,
    "estimated_diameter": {
        "kilometers": {
            "estimated_diameter_min": 0.0305179233,
            "estimated_diameter_max": 0.0682401509
        },
        "meters": {
            "estimated_diameter_min": 30.5179232594,
            "estimated_diameter_max": 68.2401509401
        },
        "miles": {
            "estimated_diameter_min": 0.0189629525,
            "estimated_diameter_max": 0.0424024508
        },
        "feet": {
            "estimated_diameter_min": 100.1244233463,
            "estimated_diameter_max": 223.8850168104
        }
    },
    "is_potentially_hazardous_asteroid": false,
    "close_approach_data": [
        {
            "close_approach_date": "1930-10-17",
            "close_approach_date_full": "1930-Oct-17 06:37",
            "epoch_date_close_approach": -1237310580000,
            "relative_velocity": {
                "kilometers_per_second": "19.7774565286",
                "kilometers_per_hour": "71198.8435029744",
                "miles_per_hour": "44240.1925088343"
            },
            "miss_distance": {
                "astronomical": "0.3086317363",
                "lunar": "120.0577454207",
                "kilometers": "46170650.364881681",
                "miles": "28689111.8049459578"
            },
            "orbiting_body": "Earth"
        },
        {
            "close_approach_date": "2019-10-02",
            "close_approach_date_full": "2019-Oct-02 20:38",
            "epoch_date_close_approach": 1570048680000,
            "relative_velocity": {
                "kilometers_per_second": "21.9646632536",
                "kilometers_per_hour": "79072.787712987",
                "miles_per_hour": "49132.7552319946"
            },
            "miss_distance": {
                "astronomical": "0.0216958831",
                "lunar": "8.4396985259",
                "kilometers": "3245657.899528997",
                "miles": "2016758.3004422786"
            },
            "orbiting_body": "Earth"
        }
    ],
    "orbital_data": {
        "orbit_id": "2",
        "orbit_determination_date": "2019-10-20 06:05:11",
        "first_observation_date": "2019-10-02",
        "last_observation_date": "2019-10-03",
        "data_arc_in_days": 1,
        "observations_used": 71,
        "orbit_uncertainty": "8",
        "minimum_orbit_intersection": ".0196624",
        "jupiter_tisserand_invariant": "3.816",
        "epoch_osculation": "2458759.5",
        "eccentricity": ".4886680727941332",
        "semi_major_axis": "1.73405474991553",
        "inclination": "35.9717592534513",
        "ascending_node_longitude": "7.99618412253336",
        "orbital_period": "834.0510531964878",
        "perihelion_distance": ".8866775571547951",
        "perihelion_argument": "53.58834279143749",
        "aphelion_distance": "2.581431942676264",
        "perihelion_time": "2458799.772915529351",
        "mean_anomaly": "342.6170717787573",
        "mean_motion": ".4316282541941594",
        "equinox": "J2000",
        "orbit_class": {
            "orbit_class_type": "APO",
            "orbit_class_description": "Near-Earth asteroid orbits which cross the Earth’s orbit similar to that of 1862 Apollo",
            "orbit_class_range": "a (semi-major axis) > 1.0 AU; q (perihelion) < 1.017 AU"
        }
    },
    "is_sentry_object": false
}